{
  "norad_id": 68089,
  "name": "STARLINK-37004",
  "history": [
    {
      "epoch": "2026-03-28T22:00:01.999584Z",
      "apogee_km": 345.0498502392493,
      "perigee_km": 343.20216902842094,
      "latitude_deg": 38.83216576314648,
      "longitude_deg": -21.160531781519964,
      "height_km": 346.8966553543061,
      "semi_major_axis_km": 6722.263009633834,
      "eccentricity": 0.00013743,
      "inclination_deg": 53.1588,
      "raan_deg": 98.3305,
      "arg_perigee_deg": 103.5874,
      "mean_anomaly_deg": 307.8075,
      "mean_motion_rev_day": 15.75177543
    },
    {
      "epoch": "2026-03-29T04:00:01.999584Z",
      "apogee_km": 344.93654859821436,
      "perigee_km": 342.95622283278226,
      "latitude_deg": 23.558046896721102,
      "longitude_deg": -130.54044533870854,
      "height_km": 344.45139883087046,
      "semi_major_axis_km": 6722.083385715498,
      "eccentricity": 0.0001473,
      "inclination_deg": 53.1592,
      "raan_deg": 97.0893,
      "arg_perigee_deg": 101.3202,
      "mean_anomaly_deg": 288.5735,
      "mean_motion_rev_day": 15.7524068
    },
    {
      "epoch": "2026-03-30T04:00:01.999584Z",
      "apogee_km": 344.6317095448221,
      "perigee_km": 343.1810925788732,
      "latitude_deg": -41.781755097926094,
      "longitude_deg": 162.81260560185,
      "height_km": 358.47164226799606,
      "semi_major_axis_km": 6722.043401061847,
      "eccentricity": 0.0001079,
      "inclination_deg": 53.1583,
      "raan_deg": 92.1196,
      "arg_perigee_deg": 101.8373,
      "mean_anomaly_deg": 202.1469,
      "mean_motion_rev_day": 15.75254735
    },
    {
      "epoch": "2026-03-30T06:00:02.000160Z",
      "apogee_km": 344.6787872608329,
      "perigee_km": 343.3717300312619,
      "latitude_deg": 42.19880039162152,
      "longitude_deg": -143.45307709120758,
      "height_km": 347.52820944964463,
      "semi_major_axis_km": 6722.162258646047,
      "eccentricity": 9.722e-05,
      "inclination_deg": 53.1582,
      "raan_deg": 91.7055,
      "arg_perigee_deg": 89.7257,
      "mean_anomaly_deg": 327.1155,
      "mean_motion_rev_day": 15.75212956
    },
    {
      "epoch": "2026-03-30T14:00:03.000384Z",
      "apogee_km": 344.53144581719334,
      "perigee_km": 343.1612367329071,
      "latitude_deg": 24.959044512084127,
      "longitude_deg": -148.2259027564901,
      "height_km": 344.45826416832074,
      "semi_major_axis_km": 6721.9833412750495,
      "eccentricity": 0.00010192,
      "inclination_deg": 53.1582,
      "raan_deg": 90.0489,
      "arg_perigee_deg": 91.181,
      "mean_anomaly_deg": 57.0817,
      "mean_motion_rev_day": 15.75275847
    },
    {
      "epoch": "2026-03-30T22:00:00.999936Z",
      "apogee_km": 344.8088897869238,
      "perigee_km": 343.2549932144075,
      "latitude_deg": -43.82868507337495,
      "longitude_deg": 155.741653925863,
      "height_km": 359.32277205837573,
      "semi_major_axis_km": 6722.168941500666,
      "eccentricity": 0.00011558,
      "inclination_deg": 53.1583,
      "raan_deg": 88.3901,
      "arg_perigee_deg": 103.859,
      "mean_anomaly_deg": 135.694,
      "mean_motion_rev_day": 15.75210607
    },
    {
      "epoch": "2026-03-31T16:46:58.669824Z",
      "apogee_km": 344.5213949762019,
      "perigee_km": 343.00359007078987,
      "latitude_deg": -4.431238160028971e-05,
      "longitude_deg": 3.683889304425528,
      "height_km": 344.44912324557953,
      "semi_major_axis_km": 6721.899492523496,
      "eccentricity": 0.0001129,
      "inclination_deg": 53.159,
      "raan_deg": 84.5013,
      "arg_perigee_deg": 72.4273,
      "mean_anomaly_deg": 287.687,
      "mean_motion_rev_day": 15.75305322
    },
    {
      "epoch": "2026-04-01T04:57:51.708672Z",
      "apogee_km": 344.5954233089078,
      "perigee_km": 342.93108080649836,
      "latitude_deg": -2.5829235860695937e-05,
      "longitude_deg": 177.93953624293445,
      "height_km": 345.35906203274607,
      "semi_major_axis_km": 6721.900252057703,
      "eccentricity": 0.0001238,
      "inclination_deg": 53.1588,
      "raan_deg": 81.9782,
      "arg_perigee_deg": 144.7542,
      "mean_anomaly_deg": 215.356,
      "mean_motion_rev_day": 15.75305055
    },
    {
      "epoch": "2026-04-02T08:22:22.829376Z",
      "apogee_km": 344.5819029550157,
      "perigee_km": 342.7312587463357,
      "latitude_deg": 1.882978751588771e-06,
      "longitude_deg": 120.00755547244432,
      "height_km": 344.59989736378026,
      "semi_major_axis_km": 6721.793580850675,
      "eccentricity": 0.00013766,
      "inclination_deg": 53.1592,
      "raan_deg": 76.3015,
      "arg_perigee_deg": 91.7306,
      "mean_anomaly_deg": 268.3872,
      "mean_motion_rev_day": 15.75342554
    },
    {
      "epoch": "2026-04-02T22:04:37.701984Z",
      "apogee_km": 344.37739232182594,
      "perigee_km": 341.8776196267636,
      "latitude_deg": 4.113386937254969e-05,
      "longitude_deg": -88.95509276057729,
      "height_km": 345.13509333437884,
      "semi_major_axis_km": 6721.2645059742945,
      "eccentricity": 0.00018596,
      "inclination_deg": 53.1594,
      "raan_deg": 73.4636,
      "arg_perigee_deg": 150.8433,
      "mean_anomaly_deg": 209.2692,
      "mean_motion_rev_day": 15.75528566
    },
    {
      "epoch": "2026-04-03T13:18:17.301024Z",
      "apogee_km": 345.7480930909169,
      "perigee_km": 342.0281243957388,
      "latitude_deg": 1.9991011958964616e-05,
      "longitude_deg": 38.85051746557065,
      "height_km": 343.44587263756785,
      "semi_major_axis_km": 6722.025108743328,
      "eccentricity": 0.0002767,
      "inclination_deg": 53.1589,
      "raan_deg": 70.3096,
      "arg_perigee_deg": 43.1565,
      "mean_anomaly_deg": 316.9672,
      "mean_motion_rev_day": 15.75261165
    },
    {
      "epoch": "2026-04-04T16:00:01.999584Z",
      "apogee_km": 344.8160949606472,
      "perigee_km": 343.94754552907125,
      "latitude_deg": -9.446792311026163,
      "longitude_deg": 178.91150095409265,
      "height_km": 347.16896910377636,
      "semi_major_axis_km": 6722.518820244859,
      "eccentricity": 6.46e-05,
      "inclination_deg": 53.1592,
      "raan_deg": 64.7826,
      "arg_perigee_deg": 79.2557,
      "mean_anomaly_deg": 112.3993,
      "mean_motion_rev_day": 15.75087634
    },
    {
      "epoch": "2026-04-05T08:00:01.999872Z",
      "apogee_km": 344.3100864516655,
      "perigee_km": 343.2167021335299,
      "latitude_deg": 11.360911782232995,
      "longitude_deg": 116.43151167323796,
      "height_km": 343.40668511316096,
      "semi_major_axis_km": 6721.900394292597,
      "eccentricity": 8.133e-05,
      "inclination_deg": 53.1593,
      "raan_deg": 61.4715,
      "arg_perigee_deg": 36.0266,
      "mean_anomaly_deg": 338.2379,
      "mean_motion_rev_day": 15.75305005
    },
    {
      "epoch": "2026-04-06T03:44:07.765152Z",
      "apogee_km": 345.11250640793605,
      "perigee_km": 342.74324742141835,
      "latitude_deg": -4.232822122455531e-05,
      "longitude_deg": 166.89986357239027,
      "height_km": 343.75543862666507,
      "semi_major_axis_km": 6722.0648769146765,
      "eccentricity": 0.00017623,
      "inclination_deg": 53.1606,
      "raan_deg": 57.3832,
      "arg_perigee_deg": 23.1962,
      "mean_anomaly_deg": 336.9137,
      "mean_motion_rev_day": 15.75247186
    },
    {
      "epoch": "2026-04-07T04:05:55.550976Z",
      "apogee_km": 345.8654280484352,
      "perigee_km": 341.75280697481867,
      "latitude_deg": 4.324394353876214e-05,
      "longitude_deg": 155.4055530209819,
      "height_km": 342.80099913149616,
      "semi_major_axis_km": 6721.946117511627,
      "eccentricity": 0.00030591,
      "inclination_deg": 53.1604,
      "raan_deg": 52.3385,
      "arg_perigee_deg": 20.6626,
      "mean_anomaly_deg": 339.4518,
      "mean_motion_rev_day": 15.75288932
    },
    {
      "epoch": "2026-04-08T02:56:21.018336Z",
      "apogee_km": 344.9581642385574,
      "perigee_km": 343.2146883707119,
      "latitude_deg": -1.3692615041257897e-05,
      "longitude_deg": 167.13157158704698,
      "height_km": 344.5136112903875,
      "semi_major_axis_km": 6722.223426304635,
      "eccentricity": 0.00012968,
      "inclination_deg": 53.1604,
      "raan_deg": 47.6087,
      "arg_perigee_deg": 55.9037,
      "mean_anomaly_deg": 304.2106,
      "mean_motion_rev_day": 15.75191456
    },
    {
      "epoch": "2026-04-09T07:52:13.684224Z",
      "apogee_km": 345.4918398485652,
      "perigee_km": 341.77765765107597,
      "latitude_deg": 5.5452020495964115e-05,
      "longitude_deg": 85.98281212461482,
      "height_km": 346.2864269287483,
      "semi_major_axis_km": 6721.77174874982,
      "eccentricity": 0.00027628,
      "inclination_deg": 53.1594,
      "raan_deg": 41.6175,
      "arg_perigee_deg": 159.1768,
      "mean_anomaly_deg": 200.9366,
      "mean_motion_rev_day": 15.75350229
    },
    {
      "epoch": "2026-04-10T12:48:07.168320Z",
      "apogee_km": 344.742658789477,
      "perigee_km": 342.77314358342846,
      "latitude_deg": -1.2563954540539421e-05,
      "longitude_deg": 4.829432381809787,
      "height_km": 344.3241118804449,
      "semi_major_axis_km": 6721.894901186452,
      "eccentricity": 0.0001465,
      "inclination_deg": 53.1597,
      "raan_deg": 35.6252,
      "arg_perigee_deg": 69.2295,
      "mean_anomaly_deg": 290.8882,
      "mean_motion_rev_day": 15.75306936
    },
    {
      "epoch": "2026-04-11T19:15:22.323744Z",
      "apogee_km": 344.311655146671,
      "perigee_km": 343.1541491495209,
      "latitude_deg": 3.7409324899712733e-06,
      "longitude_deg": -99.54021538928868,
      "height_km": 344.6436521833312,
      "semi_major_axis_km": 6721.869902148095,
      "eccentricity": 8.61e-05,
      "inclination_deg": 53.1602,
      "raan_deg": 29.3194,
      "arg_perigee_deg": 89.4639,
      "mean_anomaly_deg": 270.648,
      "mean_motion_rev_day": 15.75315724
    },
    {
      "epoch": "2026-04-13T01:42:36.908064Z",
      "apogee_km": 344.6148750739394,
      "perigee_km": 343.0254010890694,
      "latitude_deg": -5.31895020591072e-06,
      "longitude_deg": 156.09060564467953,
      "height_km": 344.50915329725655,
      "semi_major_axis_km": 6721.957138081504,
      "eccentricity": 0.00011823,
      "inclination_deg": 53.1597,
      "raan_deg": 23.0117,
      "arg_perigee_deg": 73.4241,
      "mean_anomaly_deg": 286.6909,
      "mean_motion_rev_day": 15.75285058
    }
  ]
}